STARLINK-4200           
1 52876U 22062AY  24233.67165718  .00013024  00000+0  83468-3 0  9996
2 52876  53.2178  35.0749 0001225  90.8778 269.2355 15.08848288121102
STARLINK-4214           
1 52877U 22062AZ  24233.43981504  .00000274  00000+0  35301-4 0  9997
2 52877  53.2186  36.1258 0001411  95.6247 264.4906 15.08838987120585
STARLINK-4171           
1 52878U 22062BA  24233.59437541  .00003121  00000+0  21411-3 0  9992
2 52878  53.2175  35.4189 0001376 124.8426 235.2695 15.08838208120603
STARLINK-4139           
1 52879U 22062BB  24233.16381445  .00008557  00000+0  55506-3 0  9997
2 52879  53.2173  37.3520 0001551  83.2496 276.8673 15.08838972120540
STARLINK-4186           
1 52880U 22062BC  24233.16749601 -.00000253  00000+0  22068-5 0  9996
2 52880  53.2183  37.3406 0001568  92.6918 267.4254 15.08843151120543
STARLINK-4192           
1 52881U 22062BD  24233.58335648  .01385691  00000+0  49645-2 0  9994
2 52881  53.2138  27.2904 0000982  74.4301 196.8438 15.85778354121219
STARLINK-4181           
1 52882U 22062BE  24233.71575758  .00003039  00000+0  20896-3 0  9998
2 52882  53.2163  34.4527 0000879 105.3675 254.7414 15.08835999121124
STARLINK-4260           
1 52986U 22076A   24233.88878127  .00000580  00000+0  54523-4 0  9995
2 52986  53.2162 114.1011 0001406  94.1684 265.9469 15.08836441117890
STARLINK-4259           
1 52987U 22076B   24232.93474163  .00001158  00000+0  90834-4 0  9990
2 52987  53.2160 128.3852 0001263  88.1204 271.9933 15.08832650117140
STARLINK-4291           
1 52988U 22076C   24233.09021751  .00007268  00000+0  47423-3 0  9993
2 52988  53.2160 117.6856 0001496 109.2418 250.8736 15.08841743117304
STARLINK-4293           
1 52989U 22076D   24233.12977851  .00000004  00000+0  18335-4 0  9991
2 52989  53.2172 127.5079 0001448  80.8544 279.2612 15.08841445117178
STARLINK-4286           
1 52990U 22076E   24233.85473791  .00008212  00000+0  53339-3 0  9998
2 52990  53.2157 124.2531 0001561 108.3156 251.8006 15.08845004117753
STARLINK-4285           
1 52991U 22076F   24233.85105547  .00001615  00000+0  11955-3 0  9998
2 52991  53.2169 124.2690 0001370 114.9591 245.1544 15.08842573117758
STARLINK-4269           
1 52992U 22076G   24233.84833211  .00001614  00000+0  11945-3 0  9992
2 52992  53.2159 124.2936 0001433  96.7916 263.3240 15.08845439117758
STARLINK-4264           
1 52993U 22076H   24233.08653731 -.00000451  00000+0 -10253-4 0  9998
2 52993  53.2154 117.6993 0001439 114.6962 245.4180 15.08834738117305
STARLINK-4256           
1 52994U 22076J   24233.87773402  .00002756  00000+0  19115-3 0  9997
2 52994  53.2162 114.1446 0001450 103.4047 256.7107 15.08850412117898
STARLINK-4296           
1 52995U 22076K   24233.00926234  .00000505  00000+0  49844-4 0  9999
2 52995  53.2158 118.0526 0001814  83.0715 277.0483 15.08834772117293
STARLINK-4295           
1 52996U 22076L   24233.83456935  .00007852  00000+0  51083-3 0  9996
2 52996  53.2162 114.6248 0001507  91.2419 268.8745 15.08844152117880
STARLINK-4301           
1 52997U 22076M   24233.58335648  .00126801  00000+0  28981-2 0  9992
2 52997  53.2387  54.4358 0002930 197.3944   0.9298 15.41923918  5941
STARLINK-4254           
1 52998U 22076N   24233.85932893  .00004635  00000+0  30908-3 0  9991
2 52998  53.2157 114.1474 0001296  94.1423 265.9717 15.08846882117894
STARLINK-4217           
1 52999U 22076P   24233.85197531  .00006093  00000+0  40048-3 0  9990
2 52999  53.2152 114.2664 0001591  93.5936 266.5238 15.08849169117898
STARLINK-4194           
1 53000U 22076Q   24233.07182612  .00000104  00000+0  24613-4 0  9990
2 53000  53.2164 117.7652 0001597  78.7059 281.4112 15.08831929117305
STARLINK-4190           
1 53001U 22076R   24233.84830152  .00002596  00000+0  18114-3 0  9990
2 53001  53.2167 114.2839 0001101  94.9652 265.1465 15.08833054117893
STARLINK-4121           
1 53002U 22076S   24233.06814473  .00001356  00000+0  10330-3 0  9998
2 53002  53.2177 117.7850 0001418  87.9274 272.1880 15.08840796117305
STARLINK-4255           
1 53003U 22076T   24233.11229728  .00007947  00000+0  51694-3 0  9998
2 53003  53.2159 117.5859 0001511 103.0237 257.0924 15.08832103117311
STARLINK-4253           
1 53004U 22076U   24233.85565595  .00003551  00000+0  24101-3 0  9995
2 53004  53.2153 114.2504 0001398  88.1483 271.9669 15.08848692117890
STARLINK-4288           
1 53005U 22076V   24233.83725900  .00003969  00000+0  26724-3 0  9998
2 53005  53.2153 114.3316 0001265 102.2768 257.8366 15.08848616117893
STARLINK-4290           
1 53006U 22076W   24233.11597495  .00007941  00000+0  51658-3 0  9994
2 53006  53.2162 117.5701 0001291  87.3773 272.7367 15.08829671117319
STARLINK-4215           
1 53007U 22076X   24233.89613490  .00001640  00000+0  12112-3 0  9996
2 53007  53.2160 114.0650 0001276  95.4031 264.7107 15.08837431117904
STARLINK-4275           
1 53008U 22076Y   24233.83356823  .00002210  00000+0  15695-3 0  9998
2 53008  53.2154 114.3371 0001661 119.4647 240.6511 15.08835631117899
STARLINK-4277           
1 53009U 22076Z   24233.88233694  .00004034  00000+0  27134-3 0  9991
2 53009  53.2165 104.1298 0001348  97.7481 262.3664 15.08850200118039
STARLINK-4263           
1 53010U 22076AA  24233.87402807  .00014747  00000+0  94247-3 0  9997
2 53010  53.2157 113.8943 0001611  97.6016 262.5159 15.08849989117900
STARLINK-4265           
1 53011U 22076AB  24233.34873661  .00001108  00000+0  87659-4 0  9997
2 53011  53.2161 106.5313 0001680  88.2995 271.8190 15.08847427117480
STARLINK-4271           
1 53012U 22076AC  24233.09757500  .00003870  00000+0  26115-3 0  9990
2 53012  53.2165 117.6529 0001399  96.9042 263.2110 15.08837959117311
STARLINK-4177           
1 53013U 22076AD  24233.34137672  .00008563  00000+0  55550-3 0  9990
2 53013  53.2158 106.5585 0001345  96.8413 263.2732 15.08835318117480
STARLINK-4183           
1 53014U 22076AE  24233.88601881  .00001824  00000+0  13267-3 0  9990
2 53014  53.2168 104.1156 0001447  94.2627 265.8531 15.08841570118036
STARLINK-4262           
1 53015U 22076AF  24233.06906374  .00002012  00000+0  14447-3 0  9997
2 53015  53.2154 107.7782 0001257 104.9263 255.1868 15.08835552117442
STARLINK-4283           
1 53016U 22076AG  24233.34505725  .00003491  00000+0  23734-3 0  9995
2 53016  53.2156 106.5413 0001359  96.7109 263.4038 15.08838653117483
STARLINK-4281           
1 53017U 22076AH  24233.06538160 -.00000341  00000+0 -33633-5 0  9998
2 53017  53.2164 107.7948 0001478  95.2839 264.8321 15.08833311117458
STARLINK-4279           
1 53018U 22076AJ  24233.83084725  .00004280  00000+0  28680-3 0  9995
2 53018  53.2156 104.6211 0001369  90.4023 269.7126 15.08848630118021
STARLINK-4282           
1 53019U 22076AK  24233.85289774  .00016613  00000+0  10590-2 0  9992
2 53019  53.2155 104.2627 0001589  84.8949 275.2224 15.08854760118039
STARLINK-4287           
1 53020U 22076AL  24233.07273623 -.00000501  00000+0 -13422-4 0  9994
2 53020  53.2160 107.7638 0000908 101.4215 258.6879 15.08837488117446
STARLINK-4203           
1 53021U 22076AM  24233.84553824  .00007183  00000+0  46861-3 0  9997
2 53021  53.2142 104.2913 0001929  39.9319 320.1815 15.08866204118038
STARLINK-4216           
1 53022U 22076AN  24233.06170039 -.00000146  00000+0  89322-5 0  9999
2 53022  53.2163 107.8103 0001416  97.6470 262.4683 15.08835208117447
STARLINK-4284           
1 53023U 22076AP  24233.83817320  .00006982  00000+0  45621-3 0  9991
2 53023  53.2155 104.3183 0001318  86.9174 273.1969 15.08852015118039
STARLINK-4289           
1 53024U 22076AQ  24233.84185743  .00001730  00000+0  12673-3 0  9997
2 53024  53.2159 104.3146 0001372 104.8571 255.2573 15.08844707118035
STARLINK-4218           
1 53025U 22076AR  24233.83450128  .00017823  00000+0  11346-2 0  9994
2 53025  53.2152 104.3461 0001565  91.5030 268.6142 15.08855466118039
STARLINK-4119           
1 53026U 22076AS  24233.04424416  .00004909  00000+0  32625-3 0  9994
2 53026  53.2155 107.7836 0001438 129.0446 231.0675 15.08843674117440
STARLINK-4158           
1 53027U 22076AT  24233.88970454  .00025311  00000+0  16026-2 0  9991
2 53027  53.2145 104.0974 0001600  87.1415 272.9760 15.08842598118044
STARLINK-4143           
1 53029U 22076AV  24233.87589341  .00003318  00000+0  22642-3 0  9998
2 53029  53.2147  94.1612 0001475  88.6898 271.4263 15.08848760118170
STARLINK-4160           
1 53030U 22076AW  24233.84924040  .00012851  00000+0  82381-3 0  9994
2 53030  53.2162 104.4713 0001635  84.6122 275.5057 15.08850110118033
STARLINK-4137           
1 53031U 22076AX  24233.33493721  .00007947  00000+0  51657-3 0  9998
2 53031  53.2158  96.5865 0000998  77.8768 282.2336 15.08859075117627
STARLINK-4115           
1 53032U 22076AY  24233.89337053 -.00002597  00000+0 -14516-3 0  9996
2 53032  53.2152 104.0771 0001608  86.6479 273.4697 15.08829642118045
STARLINK-4167           
1 53033U 22076AZ  24233.07366067  .00001199  00000+0  93440-4 0  9993
2 53033  53.2164  97.7581 0001251  88.6716 271.4419 15.08836350118051
STARLINK-4151           
1 53034U 22076BA  24233.34694177 -.00001020  00000+0 -45999-4 0  9991
2 53034  53.2157  96.5796 0001302  96.8513 263.2627 15.08833894117624
STARLINK-4157           
1 53035U 22076BB  24233.33126337 -.00001825  00000+0 -96628-4 0  9997
2 53035  53.2151  96.6041 0001443 102.9010 257.2144 15.08826173117629
STARLINK-4155           
1 53036U 22076BC  24233.32757803  .00002818  00000+0  19508-3 0  9997
2 53036  53.2166  96.6193 0001411  90.6843 269.4311 15.08842355117627
STARLINK-4153           
1 53037U 22076BD  24233.85381695  .00006317  00000+0  41455-3 0  9992
2 53037  53.2163  94.2587 0001501  93.6574 266.4590 15.08849099118168
STARLINK-4156           
1 53038U 22076BE  24233.32021941 -.00000087  00000+0  12622-4 0  9994
2 53038  53.2165  96.6523 0001388  96.8485 263.2665 15.08837360117622
